{"type": "FeatureCollection", "features": [ {"type": "Feature", "properties": {"norad_id": 60453, "name": "LEGION 4", "group": "resource", "lat": 24.30319805148247, "lon": -162.70561272933682, "alt_km": 521.2588813849452, "timestamp": "2025-12-12T07:43:20.161559+00:00", "meta": {"OBJECT_NAME": "LEGION 4", "OBJECT_ID": "2024-146B", "EPOCH": "2025-12-11T13:41:22.476192", "MEAN_MOTION": 15.15804314, "ECCENTRICITY": 0.00095721, "INCLINATION": 45.0386, "RA_OF_ASC_NODE": 48.1484, "ARG_OF_PERICENTER": 305.0716, "MEAN_ANOMALY": 54.9265, "EPHEMERIS_TYPE": 0, "CLASSIFICATION_TYPE": "U", "NORAD_CAT_ID": 60453, "ELEMENT_SET_NO": 999, "REV_AT_EPOCH": 7240, "BSTAR": 0.00042395412, "MEAN_MOTION_DOT": 7.988e-05, "MEAN_MOTION_DDOT": 0}, "tle": {"line1": "1 60453U 24146B   25345.57039903  .00007988  00000+0  42395-3 0  9997", "line2": "2 60453  45.0386  48.1484 0009572 305.0716  54.9265 15.15804314 72406"}}, "geometry": {"type": "Point", "coordinates": [-162.70561272933682, 24.30319805148247]}}, {"type": "Feature", "properties": {"norad_id": 60989, "name": "SENTINEL-2C", "group": "resource", "lat": 11.524754525636522, "lon": 57.048674263908644, "alt_km": 790.2294497108487, "timestamp": "2025-12-12T07:43:20.161569+00:00", "meta": {"OBJECT_NAME": "SENTINEL-2C", "OBJECT_ID": "2024-157A", "EPOCH": "2025-12-11T19:55:10.878528", "MEAN_MOTION": 14.30817024, "ECCENTRICITY": 0.0001198, "INCLINATION": 98.5683, "RA_OF_ASC_NODE": 58.3257, "ARG_OF_PERICENTER": 97.3806, "MEAN_ANOMALY": 262.7513, "EPHEMERIS_TYPE": 0, "CLASSIFICATION_TYPE": "U", "NORAD_CAT_ID": 60989, "ELEMENT_SET_NO": 999, "REV_AT_EPOCH": 6619, "BSTAR": 0.00010652891, "MEAN_MOTION_DOT": 2.36e-06, "MEAN_MOTION_DDOT": 0}, "tle": {"line1": "1 60989U 24157A   25345.82998702  .00000236  00000+0  10653-3 0  9993", "line2": "2 60989  98.5683  58.3257 0001198  97.3806 262.7513 14.30817024 66193"}}, "geometry": {"type": "Point", "coordinates": [57.048674263908644, 11.524754525636522]}}, {"type": "Feature", "properties": {"norad_id": 61735, "name": "IONOSFERA-M 1", "group": "resource", "lat": -67.99426330969024, "lon": -121.45230211489843, "alt_km": 823.4454493812118, "timestamp": "2025-12-12T07:43:20.161579+00:00", "meta": {"OBJECT_NAME": "IONOSFERA-M 1", "OBJECT_ID": "2024-199A", "EPOCH": "2025-12-11T23:36:36.532224", "MEAN_MOTION": 14.2271385, "ECCENTRICITY": 0.0001001, "INCLINATION": 98.7404, "RA_OF_ASC_NODE": 215.8378, "ARG_OF_PERICENTER": 23.4408, "MEAN_ANOMALY": 336.6815, "EPHEMERIS_TYPE": 0, "CLASSIFICATION_TYPE": "U", "NORAD_CAT_ID": 61735, "ELEMENT_SET_NO": 999, "REV_AT_EPOCH": 10108, "BSTAR": 7.2815017e-05, "MEAN_MOTION_DOT": 1.19e-06, "MEAN_MOTION_DDOT": 0}, "tle": {"line1": "1 61735U 24199A   25345.98375616  .00000119  00000+0  72815-4 0  9998", "line2": "2 61735  98.7404 215.8378 0001001  23.4408 336.6815 14.22713850101088"}}, "geometry": {"type": "Point", "coordinates": [-121.45230211489843, -67.99426330969024]}}, {"type": "Feature", "properties": {"norad_id": 61736, "name": "IONOSFERA-M 2", "group": "resource", "lat": 65.44857289938479, "lon": 55.76548713899161, "alt_km": 808.597905621782, "timestamp": "2025-12-12T07:43:20.161590+00:00", "meta": {"OBJECT_NAME": "IONOSFERA-M 2", "OBJECT_ID": "2024-199B", "EPOCH": "2025-12-12T00:26:30.052032", "MEAN_MOTION": 14.22716015, "ECCENTRICITY": 0.0001624, "INCLINATION": 98.7402, "RA_OF_ASC_NODE": 215.7847, "ARG_OF_PERICENTER": 111.7276, "MEAN_ANOMALY": 248.4075, "EPHEMERIS_TYPE": 0, "CLASSIFICATION_TYPE": "U", "NORAD_CAT_ID": 61736, "ELEMENT_SET_NO": 999, "REV_AT_EPOCH": 10421, "BSTAR": 7.267503e-05, "MEAN_MOTION_DOT": 1.19e-06, "MEAN_MOTION_DDOT": 0}, "tle": {"line1": "1 61736U 24199B   25346.01840338  .00000119  00000+0  72675-4 0  9996", "line2": "2 61736  98.7402 215.7847 0001624 111.7276 248.4075 14.22716015104214"}}, "geometry": {"type": "Point", "coordinates": [55.76548713899161, 65.44857289938479]}}, {"type": "Feature", "properties": {"norad_id": 63772, "name": "BIOMASS", "group": "resource", "lat": -57.13076938217325, "lon": -21.346922757065446, "alt_km": 676.7891406677463, "timestamp": "2025-12-12T07:43:20.161600+00:00", "meta": {"OBJECT_NAME": "BIOMASS", "OBJECT_ID": "2025-090A", "EPOCH": "2025-12-11T22:27:33.952896", "MEAN_MOTION": 14.6754459, "ECCENTRICITY": 0.00011832, "INCLINATION": 98.0702, "RA_OF_ASC_NODE": 170.9572, "ARG_OF_PERICENTER": 77.4382, "MEAN_ANOMALY": 282.6954, "EPHEMERIS_TYPE": 0, "CLASSIFICATION_TYPE": "U", "NORAD_CAT_ID": 63772, "ELEMENT_SET_NO": 999, "REV_AT_EPOCH": 3322, "BSTAR": 0.00037132342, "MEAN_MOTION_DOT": 2.058e-05, "MEAN_MOTION_DDOT": 0}, "tle": {"line1": "1 63772U 25090A   25345.93580964  .00002058  00000+0  37132-3 0  9997", "line2": "2 63772  98.0702 170.9572 0001183  77.4382 282.6954 14.67544590 33229"}}, "geometry": {"type": "Point", "coordinates": [-21.346922757065446, -57.13076938217325]}}, {"type": "Feature", "properties": {"norad_id": 64694, "name": "GOSAT-GW (IBUKI GW)", "group": "resource", "lat": 81.5555149171247, "lon": -150.40330318613314, "alt_km": 660.3190526400922, "timestamp": "2025-12-12T07:43:20.161610+00:00", "meta": {"OBJECT_NAME": "GOSAT-GW (IBUKI GW)", "OBJECT_ID": "2025-141A", "EPOCH": "2025-12-11T23:08:37.546080", "MEAN_MOTION": 14.6756822, "ECCENTRICITY": 0.00015214, "INCLINATION": 98.0424, "RA_OF_ASC_NODE": 281.4912, "ARG_OF_PERICENTER": 83.0567, "MEAN_ANOMALY": 277.0811, "EPHEMERIS_TYPE": 0, "CLASSIFICATION_TYPE": "U", "NORAD_CAT_ID": 64694, "ELEMENT_SET_NO": 999, "REV_AT_EPOCH": 2438, "BSTAR": 0.00021554209, "MEAN_MOTION_DOT": 1.175e-05, "MEAN_MOTION_DDOT": 0}, "tle": {"line1": "1 64694U 25141A   25345.96432345  .00001175  00000+0  21554-3 0  9990", "line2": "2 64694  98.0424 281.4912 0001521  83.0567 277.0811 14.67568220 24387"}}, "geometry": {"type": "Point", "coordinates": [-150.40330318613314, 81.5555149171247]}}, {"type": "Feature", "properties": {"norad_id": 64876, "name": "IONOSFERA-M 3", "group": "resource", "lat": 20.460211897803564, "lon": 131.4279943356055, "alt_km": 820.6679334802429, "timestamp": "2025-12-12T07:43:20.161620+00:00", "meta": {"OBJECT_NAME": "IONOSFERA-M 3", "OBJECT_ID": "2025-155A", "EPOCH": "2025-12-12T00:13:06.468960", "MEAN_MOTION": 14.21440769, "ECCENTRICITY": 0.00022405, "INCLINATION": 98.5781, "RA_OF_ASC_NODE": 307.8959, "ARG_OF_PERICENTER": 61.1109, "MEAN_ANOMALY": 299.0293, "EPHEMERIS_TYPE": 0, "CLASSIFICATION_TYPE": "U", "NORAD_CAT_ID": 64876, "ELEMENT_SET_NO": 999, "REV_AT_EPOCH": 1981, "BSTAR": 9.2461363e-05, "MEAN_MOTION_DOT": 1.59e-06, "MEAN_MOTION_DDOT": 0}, "tle": {"line1": "1 64876U 25155A   25346.00910265  .00000159  00000+0  92461-4 0  9992", "line2": "2 64876  98.5781 307.8959 0002240  61.1109 299.0293 14.21440769 19819"}}, "geometry": {"type": "Point", "coordinates": [131.4279943356055, 20.460211897803564]}}, {"type": "Feature", "properties": {"norad_id": 64877, "name": "IONOSFERA-M 4", "group": "resource", "lat": -20.075042655959493, "lon": -48.7186951766763, "alt_km": 825.4771323350105, "timestamp": "2025-12-12T07:43:20.161630+00:00", "meta": {"OBJECT_NAME": "IONOSFERA-M 4", "OBJECT_ID": "2025-155B", "EPOCH": "2025-12-11T23:22:14.445984", "MEAN_MOTION": 14.21441843, "ECCENTRICITY": 0.00015971, "INCLINATION": 98.578, "RA_OF_ASC_NODE": 307.7811, "ARG_OF_PERICENTER": 64.2108, "MEAN_ANOMALY": 295.9234, "EPHEMERIS_TYPE": 0, "CLASSIFICATION_TYPE": "U", "NORAD_CAT_ID": 64877, "ELEMENT_SET_NO": 999, "REV_AT_EPOCH": 1980, "BSTAR": 9.0107794e-05, "MEAN_MOTION_DOT": 1.54e-06, "MEAN_MOTION_DDOT": 0}, "tle": {"line1": "1 64877U 25155B   25345.97377831  .00000154  00000+0  90108-4 0  9995", "line2": "2 64877  98.5780 307.7811 0001597  64.2108 295.9234 14.21441843 19805"}}, "geometry": {"type": "Point", "coordinates": [-48.7186951766763, -20.075042655959493]}}, {"type": "Feature", "properties": {"norad_id": 64899, "name": "MICROCARB", "group": "resource", "lat": 57.21014896350357, "lon": 49.05996680571625, "alt_km": 648.5297781131203, "timestamp": "2025-12-12T07:43:20.161641+00:00", "meta": {"OBJECT_NAME": "MICROCARB", "OBJECT_ID": "2025-156A", "EPOCH": "2025-12-11T15:08:43.056960", "MEAN_MOTION": 14.72054339, "ECCENTRICITY": 0.001708, "INCLINATION": 98.0027, "RA_OF_ASC_NODE": 60.9944, "ARG_OF_PERICENTER": 148.1137, "MEAN_ANOMALY": 212.1108, "EPHEMERIS_TYPE": 0, "CLASSIFICATION_TYPE": "U", "NORAD_CAT_ID": 64899, "ELEMENT_SET_NO": 999, "REV_AT_EPOCH": 2037, "BSTAR": 0.0001938356, "MEAN_MOTION_DOT": 1.171e-05, "MEAN_MOTION_DDOT": 0}, "tle": {"line1": "1 64899U 25156A   25345.63105390  .00001171  00000+0  19384-3 0  9998", "line2": "2 64899  98.0027  60.9944 0017080 148.1137 212.1108 14.72054339 20372"}}, "geometry": {"type": "Point", "coordinates": [49.05996680571625, 57.21014896350357]}}, {"type": "Feature", "properties": {"norad_id": 64900, "name": "CO3D 3", "group": "resource", "lat": 27.260378760540444, "lon": 58.837318891022115, "alt_km": 503.8004948784928, "timestamp": "2025-12-12T07:43:20.161651+00:00", "meta": {"OBJECT_NAME": "CO3D 3", "OBJECT_ID": "2025-156B", "EPOCH": "2025-12-11T23:42:10.838016", "MEAN_MOTION": 15.2021493, "ECCENTRICITY": 0.000132, "INCLINATION": 97.4334, "RA_OF_ASC_NODE": 62.3654, "ARG_OF_PERICENTER": 97.0899, "MEAN_ANOMALY": 263.0486, "EPHEMERIS_TYPE": 0, "CLASSIFICATION_TYPE": "U", "NORAD_CAT_ID": 64900, "ELEMENT_SET_NO": 999, "REV_AT_EPOCH": 2109, "BSTAR": 0.0011143188, "MEAN_MOTION_DOT": 0.00024143, "MEAN_MOTION_DDOT": 0}, "tle": {"line1": "1 64900U 25156B   25345.98762544  .00024143  00000+0  11143-2 0  9997", "line2": "2 64900  97.4334  62.3654 0001320  97.0899 263.0486 15.20214930 21093"}}, "geometry": {"type": "Point", "coordinates": [58.837318891022115, 27.260378760540444]}}]}